ORBCOMM FM37            
1 33064U 08031E   25141.62752550  .00001229  00000+0  18993-3 0  9999
2 33064  48.4393 109.8905 0005833 263.6812 267.1727 14.79682784910118
ORBCOMM FM40            
1 33065U 08031F   25141.37147863  .00001943  00000+0  26973-3 0  9997
2 33065  48.4406  95.5897 0006962 274.0144 224.0617 14.81909989910182
VESSELSAT 1             
1 37840U 11058C   25141.58659398  .00000350  00000+0  46295-4 0  9990
2 37840  19.9618 254.8506 0013513 254.0582 105.8333 14.11349461702542
ORBCOMM FM107           
1 40087U 14040B   25141.35521368  .00000491  00000+0  14198-3 0  9993
2 40087  47.0031 143.9867 0001056 212.7814 147.3007 14.58201521577225
ORBCOMM FM106           
1 40088U 14040C   25141.23794931  .00000835  00000+0  17118-3 0  9996
2 40088  47.0616 328.8006 0017324 299.9294  59.9877 14.69390371579519
ORBCOMM FM104           
1 40090U 14040E   25141.51992944  .00000332  00000+0  11151-3 0  9997
2 40090  47.0033 176.4968 0015365  82.4121 277.8509 14.56613015576739
